[{"OBJECT_NAME":"STARLINK-30841","OBJECT_ID":"2023-170C","EPOCH":"2026-03-09T22:00:01.999584","MEAN_MOTION":15.26741776,"ECCENTRICITY":0.00014849,"INCLINATION":42.999,"RA_OF_ASC_NODE":193.0472,"ARG_OF_PERICENTER":269.2336,"MEAN_ANOMALY":60.4897,"EPHEMERIS_TYPE":0,"CLASSIFICATION_TYPE":"U","NORAD_CAT_ID":58208,"ELEMENT_SET_NO":999,"REV_AT_EPOCH":578,"BSTAR":0.00059454283,"MEAN_MOTION_DOT":0.00015723,"MEAN_MOTION_DDOT":0},{"OBJECT_NAME":"COSMOS 2251 DEB","OBJECT_ID":"1993-036BN","EPOCH":"2026-03-09T17:54:27.582912","MEAN_MOTION":15.31852549,"ECCENTRICITY":0.0043021,"INCLINATION":74.0291,"RA_OF_ASC_NODE":318.0178,"ARG_OF_PERICENTER":323.0874,"MEAN_ANOMALY":36.7369,"EPHEMERIS_TYPE":0,"CLASSIFICATION_TYPE":"U","NORAD_CAT_ID":33821,"ELEMENT_SET_NO":999,"REV_AT_EPOCH":76330,"BSTAR":0.0011195846,"MEAN_MOTION_DOT":0.00035571,"MEAN_MOTION_DDOT":0}]
